[
    {
        "Altitude(m)": 569876.405826304,
        "Argument of Periapsis(deg)": 0.019868973332140504,
        "Eccentricity": 0.0,
        "Inclination(deg)": 53.0,
        "Latitude(deg)": -48.15976071551662,
        "Longitude(deg)": -85.55428744996776,
        "Mean Anomaly(deg)": -111.54332139726719,
        "RAAN(deg)": 139.97043010558406,
        "Satellite Name": "Starlink Shell 1 629",
        "Satellite Number": 629,
        "Semi-Major Axis(m)": 6931778.249405717,
        "Time(s)": 570
    },
    {
        "Altitude(m)": 569985.3225207678,
        "Argument of Periapsis(deg)": 0.02021755181165174,
        "Eccentricity": 0.0,
        "Inclination(deg)": 53.0,
        "Latitude(deg)": -48.430018217024426,
        "Longitude(deg)": -84.75071540703593,
        "Mean Anomaly(deg)": -110.91649019371052,
        "RAAN(deg)": 139.96991133550657,
        "Satellite Name": "Starlink Shell 1 629",
        "Satellite Number": 629,
        "Semi-Major Axis(m)": 6931778.249405717,
        "Time(s)": 580
    },
    {
        "Altitude(m)": 570091.4987394407,
        "Argument of Periapsis(deg)": 0.020566130291162974,
        "Eccentricity": 0.0,
        "Inclination(deg)": 53.0,
        "Latitude(deg)": -48.693993596284486,
        "Longitude(deg)": -83.93826002013523,
        "Mean Anomaly(deg)": -110.28965899015377,
        "RAAN(deg)": 139.9693925654291,
        "Satellite Name": "Starlink Shell 1 629",
        "Satellite Number": 629,
        "Semi-Major Axis(m)": 6931778.249405717,
        "Time(s)": 590
    },
    {
        "Altitude(m)": 570194.8923502452,
        "Argument of Periapsis(deg)": 0.020914708770674213,
        "Eccentricity": 0.0,
        "Inclination(deg)": 53.0,
        "Latitude(deg)": -48.951563763406305,
        "Longitude(deg)": -83.11695967770713,
        "Mean Anomaly(deg)": -109.66282778659708,
        "RAAN(deg)": 139.96887379535164,
        "Satellite Name": "Starlink Shell 1 629",
        "Satellite Number": 629,
        "Semi-Major Axis(m)": 6931778.249405717,
        "Time(s)": 600
    },
    {
        "Altitude(m)": 570295.462307378,
        "Argument of Periapsis(deg)": 0.021263287250185448,
        "Eccentricity": 0.0,
        "Inclination(deg)": 53.0,
        "Latitude(deg)": -49.20260558447457,
        "Longitude(deg)": -82.2868653654369,
        "Mean Anomaly(deg)": -109.03599658304039,
        "RAAN(deg)": 139.96835502527415,
        "Satellite Name": "Starlink Shell 1 629",
        "Satellite Number": 629,
        "Semi-Major Axis(m)": 6931778.249405717,
        "Time(s)": 610
    },
    {
        "Altitude(m)": 570393.1686691889,
        "Argument of Periapsis(deg)": 0.021611865729696686,
        "Eccentricity": 0.0,
        "Inclination(deg)": 53.0,
        "Latitude(deg)": -49.44699607391709,
        "Longitude(deg)": -81.44804066675309,
        "Mean Anomaly(deg)": -108.40916537948358,
        "RAAN(deg)": 139.9678362551967,
        "Satellite Name": "Starlink Shell 1 629",
        "Satellite Number": 629,
        "Semi-Major Axis(m)": 6931778.249405717,
        "Time(s)": 620
    },
    {
        "Altitude(m)": 570487.9726155978,
        "Argument of Periapsis(deg)": 0.02196044420920792,
        "Eccentricity": 0.0,
        "Inclination(deg)": 53.0,
        "Latitude(deg)": -49.68461259762494,
        "Longitude(deg)": -80.60056342332064,
        "Mean Anomaly(deg)": -107.78233417592693,
        "RAAN(deg)": 139.96731748511922,
        "Satellite Name": "Starlink Shell 1 629",
        "Satellite Number": 629,
        "Semi-Major Axis(m)": 6931778.249405717,
        "Time(s)": 630
    },
    {
        "Altitude(m)": 570579.8364650175,
        "Argument of Periapsis(deg)": 0.02230902268871916,
        "Eccentricity": 0.0,
        "Inclination(deg)": 53.0,
        "Latitude(deg)": -49.91533308656779,
        "Longitude(deg)": -79.7445248484761,
        "Mean Anomaly(deg)": -107.15550297237023,
        "RAAN(deg)": 139.96679871504173,
        "Satellite Name": "Starlink Shell 1 629",
        "Satellite Number": 629,
        "Semi-Major Axis(m)": 6931778.249405717,
        "Time(s)": 640
    },
    {
        "Altitude(m)": 570668.7236907717,
        "Argument of Periapsis(deg)": 0.022657601168230398,
        "Eccentricity": 0.0,
        "Inclination(deg)": 53.0,
        "Latitude(deg)": -50.139036260549375,
        "Longitude(deg)": -78.88003113173632,
        "Mean Anomaly(deg)": -106.52867176881352,
        "RAAN(deg)": 139.96627994496427,
        "Satellite Name": "Starlink Shell 1 629",
        "Satellite Number": 629,
        "Semi-Major Axis(m)": 6931778.249405717,
        "Time(s)": 650
    },
    {
        "Altitude(m)": 570754.598936976,
        "Argument of Periapsis(deg)": 0.023006179647741636,
        "Eccentricity": 0.0,
        "Inclination(deg)": 53.0,
        "Latitude(deg)": -50.35560186164597,
        "Longitude(deg)": -78.00720332699443,
        "Mean Anomaly(deg)": -105.90184056525682,
        "RAAN(deg)": 139.96576117488678,
        "Satellite Name": "Starlink Shell 1 629",
        "Satellite Number": 629,
        "Semi-Major Axis(m)": 6931778.249405717,
        "Time(s)": 660
    },
    {
        "Altitude(m)": 570837.428033937,
        "Argument of Periapsis(deg)": 0.023354758127252868,
        "Eccentricity": 0.0,
        "Inclination(deg)": 53.0,
        "Latitude(deg)": -50.56491089676124,
        "Longitude(deg)": -77.12617720033748,
        "Mean Anomaly(deg)": -105.27500936170003,
        "RAAN(deg)": 139.9652424048093,
        "Satellite Name": "Starlink Shell 1 629",
        "Satellite Number": 629,
        "Semi-Major Axis(m)": 6931778.249405717,
        "Time(s)": 670
    },
    {
        "Altitude(m)": 570917.1780130168,
        "Argument of Periapsis(deg)": 0.023703336606764106,
        "Eccentricity": 0.0,
        "Inclination(deg)": 53.0,
        "Latitude(deg)": -50.766845888620566,
        "Longitude(deg)": -76.23710454526449,
        "Mean Anomaly(deg)": -104.64817815814334,
        "RAAN(deg)": 139.96472363473185,
        "Satellite Name": "Starlink Shell 1 629",
        "Satellite Number": 629,
        "Semi-Major Axis(m)": 6931778.249405717,
        "Time(s)": 680
    },
    {
        "Altitude(m)": 570993.8171209517,
        "Argument of Periapsis(deg)": 0.024051915086275345,
        "Eccentricity": 0.0,
        "Inclination(deg)": 53.0,
        "Latitude(deg)": -50.9612911344119,
        "Longitude(deg)": -75.34015293446424,
        "Mean Anomaly(deg)": -104.02134695458669,
        "RAAN(deg)": 139.9642048646544,
        "Satellite Name": "Starlink Shell 1 629",
        "Satellite Number": 629,
        "Semi-Major Axis(m)": 6931778.249405717,
        "Time(s)": 690
    },
    {
        "Altitude(m)": 571067.3148336656,
        "Argument of Periapsis(deg)": 0.024400493565786583,
        "Eccentricity": 0.0,
        "Inclination(deg)": 53.0,
        "Latitude(deg)": -51.14813297116504,
        "Longitude(deg)": -74.43550541601265,
        "Mean Anomaly(deg)": -103.39451575102991,
        "RAAN(deg)": 139.9636860945769,
        "Satellite Name": "Starlink Shell 1 629",
        "Satellite Number": 629,
        "Semi-Major Axis(m)": 6931778.249405717,
        "Time(s)": 700
    },
    {
        "Altitude(m)": 571137.6418695301,
        "Argument of Periapsis(deg)": 0.024749072045297815,
        "Eccentricity": 0.0,
        "Inclination(deg)": 53.0,
        "Latitude(deg)": -51.32726004684527,
        "Longitude(deg)": -73.5233616619891,
        "Mean Anomaly(deg)": -102.76768454747327,
        "RAAN(deg)": 139.9631673244994,
        "Satellite Name": "Starlink Shell 1 629",
        "Satellite Number": 629,
        "Semi-Major Axis(m)": 6931778.249405717,
        "Time(s)": 710
    },
    {
        "Altitude(m)": 571204.7702020631,
        "Argument of Periapsis(deg)": 0.025097650524809053,
        "Eccentricity": 0.0,
        "Inclination(deg)": 53.0,
        "Latitude(deg)": -51.498563596023196,
        "Longitude(deg)": -72.60393753909078,
        "Mean Anomaly(deg)": -102.1408533439165,
        "RAAN(deg)": 139.96264855442195,
        "Satellite Name": "Starlink Shell 1 629",
        "Satellite Number": 629,
        "Semi-Major Axis(m)": 6931778.249405717,
        "Time(s)": 720
    },
    {
        "Altitude(m)": 571268.6730721057,
        "Argument of Periapsis(deg)": 0.02544622900432029,
        "Eccentricity": 0.0,
        "Inclination(deg)": 53.0,
        "Latitude(deg)": -51.661937718870945,
        "Longitude(deg)": -71.67746460975002,
        "Mean Anomaly(deg)": -101.51402214035977,
        "RAAN(deg)": 139.96212978434446,
        "Satellite Name": "Starlink Shell 1 629",
        "Satellite Number": 629,
        "Semi-Major Axis(m)": 6931778.249405717,
        "Time(s)": 730
    },
    {
        "Altitude(m)": 571329.3249994409,
        "Argument of Periapsis(deg)": 0.02579480748383153,
        "Eccentricity": 0.0,
        "Inclination(deg)": 53.0,
        "Latitude(deg)": -51.817279662132506,
        "Longitude(deg)": -70.744191072619,
        "Mean Anomaly(deg)": -100.8871909368031,
        "RAAN(deg)": 139.96161101426702,
        "Satellite Name": "Starlink Shell 1 629",
        "Satellite Number": 629,
        "Semi-Major Axis(m)": 6931778.249405717,
        "Time(s)": 740
    },
    {
        "Altitude(m)": 571386.7017938353,
        "Argument of Periapsis(deg)": 0.026143385963342765,
        "Eccentricity": 0.0,
        "Inclination(deg)": 53.0,
        "Latitude(deg)": -51.96449010061417,
        "Longitude(deg)": -69.80438111311257,
        "Mean Anomaly(deg)": -100.26035973324632,
        "RAAN(deg)": 139.96109224418953,
        "Satellite Name": "Starlink Shell 1 629",
        "Satellite Number": 629,
        "Semi-Major Axis(m)": 6931778.249405717,
        "Time(s)": 750
    }
]